NORAD_CAT_ID,OBJECT_NAME,OBJECT_TYPE,EPOCH,MEAN_MOTION,ECCENTRICITY,INCLINATION,RA_OF_ASC_NODE,ARG_OF_PERICENTER,MEAN_ANOMALY,BSTAR,MEAN_MOTION_DOT,MEAN_MOTION_DDOT,TLE_LINE0,TLE_LINE1,TLE_LINE2,SEMIMAJOR_AXIS,PERIOD,APOGEE,PERIGEE,DECAYED
53434.0,STARLINK-4498,PAYLOAD,2022-12-15 17:28:41,15.08838567,0.0001748,53.2192,0.8989,48.3792,311.735,7.9831e-05,9.83e-06,0.0,0 STARLINK-4498,1 53434U 22097AY  22349.72826271  .00000983  00000-0  79831-4 0  9996,2 53434  53.2192   0.8989 0001748  48.3792 311.7350 15.08838567 20665,6917.885,95.438,540.9590000000002,538.5409999999998,0.0
53434.0,STARLINK-4498,PAYLOAD,2022-12-16 06:11:47,15.08838102,0.00017,53.2189,358.5208,46.208,313.9052,1.2004e-06,-2.69e-06,0.0,0 STARLINK-4498,1 53434U 22097AY  22350.25818700 -.00000269  00000-0  12004-5 0  9992,2 53434  53.2189 358.5208 0001700  46.2080 313.9052 15.08838102 20256,6917.886,95.438,540.927,538.575,0.0
53434.0,STARLINK-4498,PAYLOAD,2022-12-16 10:57:56,15.08840006,0.0001809,53.2194,357.6282,49.4022,310.7127,3.3819e-05,2.5e-06,0.0,0 STARLINK-4498,1 53434U 22097AY  22350.45690489  .00000250  00000-0  33819-4 0  9991,2 53434  53.2194 357.6282 0001809  49.4022 310.7127 15.08840006 20776,6917.88,95.438,540.997,538.494,0.0
53434.0,STARLINK-4498,PAYLOAD,2022-12-16 17:19:29,15.08837812,0.0001832,53.2194,356.4387,48.8238,311.2912,1.3395e-05,-7.5e-07,0.0,0 STARLINK-4498,1 53434U 22097AY  22350.72186714 -.00000075  00000-0  13395-4 0  9995,2 53434  53.2194 356.4387 0001832  48.8238 311.2912 15.08837812 20811,6917.887,95.438,541.019,538.485,0.0
53434.0,STARLINK-4498,PAYLOAD,2022-12-17 07:37:57,15.08839063,0.0001778,53.2192,353.7623,48.6301,311.4844,9.6144e-05,1.242e-05,0.0,0 STARLINK-4498,1 53434U 22097AY  22351.31802438  .00001242  00000-0  96144-4 0  9998,2 53434  53.2192 353.7623 0001778  48.6301 311.4844 15.08839063 20906,6917.8830000000025,95.438,540.9780000000002,538.518,0.0
53434.0,STARLINK-4498,PAYLOAD,2022-12-17 17:10:16,15.0883715,0.0001727,53.2194,351.9781,46.7393,313.3743,1.4419e-06,-2.65e-06,0.0,0 STARLINK-4498,1 53434U 22097AY  22351.71546961 -.00000265  00000-0  14419-5 0  9999,2 53434  53.2194 351.9781 0001727  46.7393 313.3743 15.08837150 20967,6917.889,95.438,540.9490000000002,538.559,0.0
53434.0,STARLINK-4498,PAYLOAD,2022-12-18 04:17:58,15.08834301,0.0001754999999999,53.2188,349.8964,51.053,309.0619,-3.4502e-06,-3.43e-06,0.0,0 STARLINK-4498,1 53434U 22097AY  22352.17915271 -.00000343  00000-0 -34502-5 0  9997,2 53434  53.2188 349.8964 0001755  51.0530 309.0619 15.08834301 20545,6917.898,95.438,540.977,538.549,0.0
53434.0,STARLINK-4498,PAYLOAD,2022-12-18 07:28:45,15.08834528,0.000176,53.2188,349.3021,50.0108,310.1038,-4.0745e-06,-3.53e-06,0.0,0 STARLINK-4498,1 53434U 22097AY  22352.31163309 -.00000353  00000-0 -40745-5 0  9997,2 53434  53.2188 349.3021 0001760  50.0108 310.1038 15.08834528 21056,6917.897,95.438,540.98,538.545,0.0
53434.0,STARLINK-4498,PAYLOAD,2022-12-18 17:01:03,15.08842177,0.0001843,53.2194,347.5176,50.5601,309.5554,3.7644e-05,3.11e-06,0.0,0 STARLINK-4498,1 53434U 22097AY  22352.70906720  .00000311  00000-0  37644-4 0  9997,2 53434  53.2194 347.5176 0001843  50.5601 309.5554 15.08842177 21110,6917.874,95.437,541.014,538.464,0.0
53434.0,STARLINK-4498,PAYLOAD,2022-12-19 05:44:08,15.08832992,0.0001689,53.2188,345.1383,51.4937,308.6207,0.00011081,1.476e-05,0.0,0 STARLINK-4498,1 53434U 22097AY  22353.23899062  .00001476  00000-0  11081-3 0  9995,2 53434  53.2188 345.1383 0001689  51.4937 308.6207 15.08832992 20700,6917.901999999999,95.438,540.935,538.5980000000002,0.0
53434.0,STARLINK-4498,PAYLOAD,2022-12-19 07:19:31,15.08842367,0.0001736,53.2193,344.841,52.3673,307.7476,1.3107e-05,-7.9e-07,0.0,0 STARLINK-4498,1 53434U 22097AY  22353.30522731 -.00000079  00000-0  13107-4 0  9990,2 53434  53.2193 344.8410 0001736  52.3673 307.7476 15.08842367 21204,6917.873000000001,95.437,540.939,538.5369999999998,0.0
53434.0,STARLINK-4498,PAYLOAD,2022-12-19 16:51:49,15.08846137,0.0001671,53.2196,343.0567,57.9984,302.117,8.2236e-05,1.021e-05,0.0,0 STARLINK-4498,1 53434U 22097AY  22353.70266098  .00001021  00000-0  82236-4 0  9991,2 53434  53.2196 343.0567 0001671  57.9984 302.1170 15.08846137 21260,6917.861999999999,95.437,540.883,538.571,0.0
53434.0,STARLINK-4498,PAYLOAD,2022-12-20 08:45:41,15.08841222,0.0001793,53.2201,340.0837,53.2164,306.8992,2.8975e-05,1.73e-06,0.0,0 STARLINK-4498,1 53434U 22097AY  22354.36506391  .00000173  00000-0  28975-4 0  9994,2 53434  53.2201 340.0837 0001793  53.2164 306.8992 15.08841222 20877,6917.877,95.437,540.982,538.501,0.0
53434.0,STARLINK-4498,PAYLOAD,2022-12-20 16:42:36,15.08847499,0.0001937,53.2199,338.5988,45.8962,314.219,0.00011899,1.606e-05,0.0,0 STARLINK-4498,1 53434U 22097AY  22354.69625631  .00001606  00000-0  11899-3 0  9997,2 53434  53.2199 338.5988 0001937  45.8962 314.2190 15.08847499 20926,6917.857,95.437,541.062,538.382,0.0
53434.0,STARLINK-4498,PAYLOAD,2022-12-21 10:11:50,15.08843208,0.0001957,53.2198,335.3263,48.8205,311.2955,2.2552e-05,7.1e-07,0.0,0 STARLINK-4498,1 53434U 22097AY  22355.42489497  .00000071  00000-0  22552-4 0  9991,2 53434  53.2198 335.3263 0001957  48.8205 311.2955 15.08843208 21528,6917.871,95.437,541.089,538.382,0.0
53434.0,STARLINK-4498,PAYLOAD,2022-12-22 05:16:28,15.08840085,0.0001776999999999,53.2207,331.7596,48.2915,311.8229,-8.4274e-05,-1.629e-05,0.0,0 STARLINK-4498,1 53434U 22097AY  22356.21977910 -.00001629  00000-0 -84274-4 0  9992,2 53434  53.2207 331.7596 0001777  48.2915 311.8229 15.08840085 21159,6917.88,95.438,540.974,538.516,0.0
53434.0,STARLINK-4498,PAYLOAD,2022-12-22 10:02:38,15.08835252,0.0001771,53.2198,330.867,50.8184,309.2965,-3.6169e-05,-8.64e-06,0.0,0 STARLINK-4498,1 53434U 22097AY  22356.41850038 -.00000864  00000-0 -36169-4 0  9995,2 53434  53.2198 330.8670 0001771  50.8184 309.2965 15.08835252 21677,6917.895,95.438,540.985,538.535,0.0
53434.0,STARLINK-4498,PAYLOAD,2022-12-23 05:07:16,15.08834222,0.000164,53.2215,327.2985,43.5842,316.5279,-0.00017024,-2.996e-05,0.0,0 STARLINK-4498,1 53434U 22097AY  22357.21338669 -.00002996  00000-0 -17024-3 0  9991,2 53434  53.2215 327.2985 0001640  43.5842 316.5279 15.08834222 21306,6917.898,95.438,540.898,538.629,0.0
53434.0,STARLINK-4498,PAYLOAD,2022-12-23 09:53:25,15.08838093,0.0001695,53.2208,326.4053,42.559,317.5533,-0.00016439,-2.903e-05,0.0,0 STARLINK-4498,1 53434U 22097AY  22357.41210358 -.00002903  00000-0 -16439-3 0  9994,2 53434  53.2208 326.4053 0001695  42.5590 317.5533 15.08838093 21825,6917.886,95.438,540.924,538.5790000000002,0.0
53434.0,STARLINK-4498,PAYLOAD,2022-12-23 14:39:35,15.08834165,0.0002013,53.2196,325.5126,39.5292,320.5846,-0.00018512,-3.233e-05,0.0,0 STARLINK-4498,1 53434U 22097AY  22357.61082931 -.00003233  00000-0 -18512-3 0  9991,2 53434  53.2196 325.5126 0002013  39.5292 320.5846 15.08834165 21852,6917.898,95.438,541.156,538.371,0.0
53434.0,STARLINK-4498,PAYLOAD,2022-12-23 22:36:32,15.08816716,0.000159,53.2201,324.0271,43.8166,316.2952,-6.1211e-06,-3.85e-06,0.0,0 STARLINK-4498,1 53434U 22097AY  22357.94203849 -.00000385  00000-0 -61211-5 0  9991,2 53434  53.2201 324.0271 0001590  43.8166 316.2952 15.08816716 21415,6917.9519999999975,95.439,540.9169999999998,538.717,0.0
53434.0,STARLINK-4498,PAYLOAD,2022-12-24 04:58:04,15.08830225,0.0001758,53.2192,322.8383,45.556,314.5576,2.8579e-05,1.67e-06,0.0,0 STARLINK-4498,1 53434U 22097AY  22358.20699226  .00000167  00000-0  28579-4 0  9994,2 53434  53.2192 322.8383 0001758  45.5560 314.5576 15.08830225 21455,6917.91,95.438,540.991,538.559,0.0
53434.0,STARLINK-4498,PAYLOAD,2022-12-24 09:44:13,15.08833514,0.0001811,53.2197,321.9455,47.822,312.2926,5.8294e-05,6.4e-06,0.0,0 STARLINK-4498,1 53434U 22097AY  22358.40571050  .00000640  00000-0  58294-4 0  9993,2 53434  53.2197 321.9455 0001811  47.8220 312.2926 15.08833514 21973,6917.9,95.438,541.018,538.512,0.0
53434.0,STARLINK-4498,PAYLOAD,2022-12-24 14:30:22,15.08839166,0.0001774,53.2196,321.0539,46.7575,313.3565,0.00012657,1.727e-05,0.0,0 STARLINK-4498,1 53434U 22097AY  22358.60442539  .00001727  00000-0  12657-3 0  9993,2 53434  53.2196 321.0539 0001774  46.7575 313.3565 15.08839166 21515,6917.8830000000025,95.438,540.975,538.521,0.0
53434.0,STARLINK-4498,PAYLOAD,2022-12-25 04:48:51,15.08831525,0.0001638,53.2192,318.3781,46.5096,313.6033,0.00015885,2.24e-05,0.0,0 STARLINK-4498,1 53434U 22097AY  22359.20059160  .00002240  00000-0  15885-3 0  9991,2 53434  53.2192 318.3781 0001638  46.5096 313.6033 15.08831525 21608,6917.906,95.438,540.904,538.638,0.0
53434.0,STARLINK-4498,PAYLOAD,2022-12-25 07:59:37,15.0882997,0.0001561,53.2197,317.7843,47.1229,312.9894,0.00014047,1.948e-05,0.0,0 STARLINK-4498,1 53434U 22097AY  22359.33307395  .00001948  00000-0  14047-3 0  9994,2 53434  53.2197 317.7843 0001561  47.1229 312.9894 15.08829970 22110,6917.911,95.438,540.856,538.696,0.0
53434.0,STARLINK-4498,PAYLOAD,2022-12-26 06:15:02,15.08830013,0.0001643,53.2191,313.6201,49.7986,310.315,8.9281e-06,-1.46e-06,0.0,0 STARLINK-4498,1 53434U 22097AY  22360.26044450 -.00000146  00000-0  89281-5 0  9992,2 53434  53.2191 313.6201 0001643  49.7986 310.3150 15.08830013 22258,6917.911,95.438,540.913,538.639,0.0
53434.0,STARLINK-4498,PAYLOAD,2022-12-26 14:11:57,15.08835551,0.0001657,53.2188,312.1334,47.7426,312.3707,9.8547e-06,-1.31e-06,0.0,0 STARLINK-4498,1 53434U 22097AY  22360.59164211 -.00000131  00000-0  98547-5 0  9995,2 53434  53.2188 312.1334 0001657  47.7426 312.3707 15.08835551 21810,6917.894,95.438,540.905,538.613,0.0
53434.0,STARLINK-4498,PAYLOAD,2022-12-27 06:05:47,15.08850649,0.0001608,53.2189,309.1594,46.8306,313.282,0.00011321,1.515e-05,0.0,0 STARLINK-4498,1 53434U 22097AY  22361.25402750  .00001515  00000-0  11321-3 0  9991,2 53434  53.2189 309.1594 0001608  46.8306 313.2820 15.08850649 21910,6917.848000000001,95.437,540.825,538.6,0.0
